{
  "type": "FeatureCollection",
  "features": [
    {
      "type": "Feature",
      "properties": {
        "norad_id": 66582,
        "name": "STARLINK-35746",
        "group": "last-30-days",
        "lat": 20.209129514692194,
        "lon": 115.08028900930766,
        "alt_km": 411.78933265120486,
        "timestamp": "2025-12-17T17:50:17.972592+00:00",
        "meta_object_name": "STARLINK-35746",
        "meta_object_id": "2025-268AB",
        "meta_epoch": "2025-12-16T15:25:40.461888",
        "meta_mean_motion": 15.50594828,
        "meta_eccentricity": 0.00019721,
        "meta_inclination": 43.001,
        "meta_ra_of_asc_node": 98.2522,
        "meta_arg_of_pericenter": 274.4376,
        "meta_mean_anomaly": 85.6259,
        "meta_ephemeris_type": 0,
        "meta_classification_type": "U",
        "meta_norad_cat_id": 66582,
        "meta_element_set_no": 999,
        "meta_rev_at_epoch": 523,
        "meta_bstar": 0.0011306109,
        "meta_mean_motion_dot": 0.00066591,
        "meta_mean_motion_ddot": 0,
        "tle_line1": "1 66582U 25268AB  25350.64282942  .00066591  00000+0  11306-2 0  9991",
        "tle_line2": "2 66582  43.0010  98.2522 0001972 274.4376  85.6259 15.50594828  5239"
      },
      "geometry": {
        "type": "Point",
        "coordinates": [
          115.08028900930766,
          20.209129514692194
        ]
      }
    },
    {
      "type": "Feature",
      "properties": {
        "norad_id": 66583,
        "name": "STARLINK-35941",
        "group": "last-30-days",
        "lat": 21.23905574646403,
        "lon": 116.46210267058294,
        "alt_km": 412.4222033846236,
        "timestamp": "2025-12-17T17:50:17.972602+00:00",
        "meta_object_name": "STARLINK-35941",
        "meta_object_id": "2025-268AC",
        "meta_epoch": "2025-12-17T08:25:31.533888",
        "meta_mean_motion": 15.50647835,
        "meta_eccentricity": 0.00018765,
        "meta_inclination": 42.9991,
        "meta_ra_of_asc_node": 94.1057,
        "meta_arg_of_pericenter": 187.7575,
        "meta_mean_anomaly": 172.3257,
        "meta_ephemeris_type": 0,
        "meta_classification_type": "U",
        "meta_norad_cat_id": 66583,
        "meta_element_set_no": 999,
        "meta_rev_at_epoch": 534,
        "meta_bstar": 0.0017018479,
        "meta_mean_motion_dot": 0.00101045,
        "meta_mean_motion_ddot": 0,
        "tle_line1": "1 66583U 25268AC  25351.35105942  .00101045  00000+0  17018-2 0  9995",
        "tle_line2": "2 66583  42.9991  94.1057 0001876 187.7575 172.3257 15.50647835  5345"
      },
      "geometry": {
        "type": "Point",
        "coordinates": [
          116.46210267058294,
          21.23905574646403
        ]
      }
    },
    {
      "type": "Feature",
      "properties": {
        "norad_id": 66584,
        "name": "STARLINK-35939",
        "group": "last-30-days",
        "lat": 22.377496599313826,
        "lon": 118.02727220202277,
        "alt_km": 412.0088495200598,
        "timestamp": "2025-12-17T17:50:17.972614+00:00",
        "meta_object_name": "STARLINK-35939",
        "meta_object_id": "2025-268AD",
        "meta_epoch": "2025-12-17T08:25:02.020512",
        "meta_mean_motion": 15.50616148,
        "meta_eccentricity": 0.00014233,
        "meta_inclination": 42.9988,
        "meta_ra_of_asc_node": 94.1028,
        "meta_arg_of_pericenter": 248.6994,
        "meta_mean_anomaly": 111.3715,
        "meta_ephemeris_type": 0,
        "meta_classification_type": "U",
        "meta_norad_cat_id": 66584,
        "meta_element_set_no": 999,
        "meta_rev_at_epoch": 534,
        "meta_bstar": 0.0010334427,
        "meta_mean_motion_dot": 0.00060839,
        "meta_mean_motion_ddot": 0,
        "tle_line1": "1 66584U 25268AD  25351.35071783  .00060839  00000+0  10334-2 0  9990",
        "tle_line2": "2 66584  42.9988  94.1028 0001423 248.6994 111.3715 15.50616148  5345"
      },
      "geometry": {
        "type": "Point",
        "coordinates": [
          118.02727220202277,
          22.377496599313826
        ]
      }
    },
    {
      "type": "Feature",
      "properties": {
        "norad_id": 66585,
        "name": "STARLINK-35963",
        "group": "last-30-days",
        "lat": 23.55852624480771,
        "lon": 119.70208539751418,
        "alt_km": 411.59899443712584,
        "timestamp": "2025-12-17T17:50:17.972624+00:00",
        "meta_object_name": "STARLINK-35963",
        "meta_object_id": "2025-268AE",
        "meta_epoch": "2025-12-17T08:24:32.457024",
        "meta_mean_motion": 15.50631925,
        "meta_eccentricity": 0.00023779,
        "meta_inclination": 42.9984,
        "meta_ra_of_asc_node": 94.1002,
        "meta_arg_of_pericenter": 280.9473,
        "meta_mean_anomaly": 79.1119,
        "meta_ephemeris_type": 0,
        "meta_classification_type": "U",
        "meta_norad_cat_id": 66585,
        "meta_element_set_no": 999,
        "meta_rev_at_epoch": 534,
        "meta_bstar": 0.001204031,
        "meta_mean_motion_dot": 0.00071075,
        "meta_mean_motion_ddot": 0,
        "tle_line1": "1 66585U 25268AE  25351.35037566  .00071075  00000+0  12040-2 0  9992",
        "tle_line2": "2 66585  42.9984  94.1002 0002377 280.9473  79.1119 15.50631925  5343"
      },
      "geometry": {
        "type": "Point",
        "coordinates": [
          119.70208539751418,
          23.55852624480771
        ]
      }
    },
    {
      "type": "Feature",
      "properties": {
        "norad_id": 66586,
        "name": "TJS-21",
        "group": "last-30-days",
        "lat": 31.515977770377678,
        "lon": 179.8093405763008,
        "alt_km": 17424.54127681783,
        "timestamp": "2025-12-17T17:50:17.972639+00:00",
        "meta_object_name": "TJS-21",
        "meta_object_id": "2025-269A",
        "meta_epoch": "2025-12-10T17:31:22.184832",
        "meta_mean_motion": 2.00567425,
        "meta_eccentricity": 0.6805766,
        "meta_inclination": 63.269,
        "meta_ra_of_asc_node": 162.5612,
        "meta_arg_of_pericenter": 269.7806,
        "meta_mean_anomaly": 18.6565,
        "meta_ephemeris_type": 0,
        "meta_classification_type": "U",
        "meta_norad_cat_id": 66586,
        "meta_element_set_no": 999,
        "meta_rev_at_epoch": 39,
        "meta_bstar": -0.044965385,
        "meta_mean_motion_dot": 1.083e-05,
        "meta_mean_motion_ddot": 0,
        "tle_line1": "1 66586U 25269A   25344.73011788  .00001083  00000+0 -44965-1 0  9999",
        "tle_line2": "2 66586  63.2690 162.5612 6805766 269.7806  18.6565  2.00567425   392"
      },
      "geometry": {
        "type": "Point",
        "coordinates": [
          179.8093405763008,
          31.515977770377678
        ]
      }
    },
    {
      "type": "Feature",
      "properties": {
        "norad_id": 66587,
        "name": "CZ-3B R/B",
        "group": "last-30-days",
        "lat": 16.9230892116386,
        "lon": -177.4872272974808,
        "alt_km": 27754.653554860164,
        "timestamp": "2025-12-17T17:50:17.972656+00:00",
        "meta_object_name": "CZ-3B R/B",
        "meta_object_id": "2025-269B",
        "meta_epoch": "2025-12-17T04:50:14.865216",
        "meta_mean_motion": 2.03937792,
        "meta_eccentricity": 0.75168551,
        "meta_inclination": 51.3435,
        "meta_ra_of_asc_node": 168.6023,
        "meta_arg_of_pericenter": 229.5038,
        "meta_mean_anomaly": 36.3416,
        "meta_ephemeris_type": 0,
        "meta_classification_type": "U",
        "meta_norad_cat_id": 66587,
        "meta_element_set_no": 999,
        "meta_rev_at_epoch": 54,
        "meta_bstar": 0.00055683527,
        "meta_mean_motion_dot": 0.00072738,
        "meta_mean_motion_ddot": -9.18653e-07,
        "tle_line1": "1 66587U 25269B   25351.20156094  .00072738 -91865-6  55684-3 0  9993",
        "tle_line2": "2 66587  51.3435 168.6023 7516855 229.5038  36.3416  2.03937792   541"
      },
      "geometry": {
        "type": "Point",
        "coordinates": [
          -177.4872272974808,
          16.9230892116386
        ]
      }
    },
    {
      "type": "Feature",
      "properties": {
        "norad_id": 66588,
        "name": "STARLINK-36076",
        "group": "last-30-days",
        "lat": 41.70456429059517,
        "lon": -123.05273779429298,
        "alt_km": 438.5337760243974,
        "timestamp": "2025-12-17T17:50:17.972668+00:00",
        "meta_object_name": "STARLINK-36076",
        "meta_object_id": "2025-270A",
        "meta_epoch": "2025-12-17T00:00:02.999808",
        "meta_mean_motion": 15.40680054,
        "meta_eccentricity": 0.00021536,
        "meta_inclination": 42.9991,
        "meta_ra_of_asc_node": 168.2311,
        "meta_arg_of_pericenter": 247.7445,
        "meta_mean_anomaly": 22.3113,
        "meta_ephemeris_type": 0,
        "meta_classification_type": "U",
        "meta_norad_cat_id": 66588,
        "meta_element_set_no": 999,
        "meta_rev_at_epoch": 508,
        "meta_bstar": 0.0021211795,
        "meta_mean_motion_dot": 0.0008929,
        "meta_mean_motion_ddot": 0,
        "tle_line1": "1 66588U 25270A   25351.00003472  .00089290  00000+0  21212-2 0  9998",
        "tle_line2": "2 66588  42.9991 168.2311 0002153 247.7445  22.3113 15.40680054  5083"
      },
      "geometry": {
        "type": "Point",
        "coordinates": [
          -123.05273779429298,
          41.70456429059517
        ]
      }
    }
  ]
}